IRIDIUM 106             
1 41917U 17003A   25056.92534558  .00000007  00000+0 -46940-5 0  9997
2 41917  86.3938 287.5424 0002170  73.3562 286.7871 14.34212712424948
IRIDIUM 103             
1 41918U 17003B   25056.91268063  .00000563  00000+0  19391-3 0  9996
2 41918  86.3937 287.4492 0002672  92.2069 267.9433 14.34209095424968
IRIDIUM 109             
1 41919U 17003C   25056.91900695  .00000060  00000+0  14378-4 0  9994
2 41919  86.3939 287.4980 0002057  93.4808 266.6623 14.34217966424934
IRIDIUM 102             
1 41920U 17003D   25056.88729320  .00000355  00000+0  11954-3 0  9999
2 41920  86.3937 287.4449 0001962  85.2933 274.8487 14.34219308425017
IRIDIUM 104             
1 41922U 17003F   25056.89997829  .00000092  00000+0  25697-4 0  9991
2 41922  86.3937 287.4750 0002188  99.5470 260.5973 14.34218322425005
IRIDIUM 114             
1 41923U 17003G   25056.90632227  .00000125  00000+0  37640-4 0  9990
2 41923  86.3939 287.4574 0002285  88.7225 271.4233 14.34218272424988
IRIDIUM 108             
1 41924U 17003H   25056.93460790  .00000171  00000+0  54121-4 0  9992
2 41924  86.3914 255.7437 0002076  81.8122 278.3310 14.34219317426846
